ONEWEB-0610             
1 54673U 22166AH  26068.57234980 -.00000107  00000+0 -29177-3 0  9990
2 54673  87.9162 263.8470 0000969  85.3496 274.7749 13.21824920158296
ONEWEB-0721             
1 56725U 23068R   26068.64783409 -.00000057  00000+0 -17098-3 0  9998
2 56725  86.6760 117.3008 0001920 100.0966 260.0384 13.22461847144789
