[{"OBJECT_NAME":"ONEWEB-0610","OBJECT_ID":"2022-166AH","EPOCH":"2026-03-09T13:44:11.022720","MEAN_MOTION":13.2182492,"ECCENTRICITY":9.69e-5,"INCLINATION":87.9162,"RA_OF_ASC_NODE":263.847,"ARG_OF_PERICENTER":85.3496,"MEAN_ANOMALY":274.7749,"EPHEMERIS_TYPE":0,"CLASSIFICATION_TYPE":"U","NORAD_CAT_ID":54673,"ELEMENT_SET_NO":999,"REV_AT_EPOCH":15829,"BSTAR":-0.00029177,"MEAN_MOTION_DOT":-1.07e-6,"MEAN_MOTION_DDOT":0},{"OBJECT_NAME":"ONEWEB-0721","OBJECT_ID":"2023-068R","EPOCH":"2026-03-09T15:32:52.865376","MEAN_MOTION":13.22461847,"ECCENTRICITY":0.00019199,"INCLINATION":86.676,"RA_OF_ASC_NODE":117.3008,"ARG_OF_PERICENTER":100.0966,"MEAN_ANOMALY":260.0384,"EPHEMERIS_TYPE":0,"CLASSIFICATION_TYPE":"U","NORAD_CAT_ID":56725,"ELEMENT_SET_NO":999,"REV_AT_EPOCH":14478,"BSTAR":-0.00017098121,"MEAN_MOTION_DOT":-5.7e-7,"MEAN_MOTION_DDOT":0}]
